ONEWEB-0210             
1 48787U 21045W   25212.34225043 -.00000052  00000+0 -17254-3 0  9991
2 48787  87.9083 323.1540 0002591  92.9910 267.1517 13.15547830202130
ONEWEB-0214             
1 48788U 21045X   25212.35096964  .00000019  00000+0  16711-4 0  9990
2 48788  87.9080 323.1411 0002422  98.4943 261.6462 13.15545982202106
ONEWEB-0221             
1 48789U 21045Y   25212.58627936 -.00000374  00000+0 -10270-2 0  9993
2 48789  87.9074 323.1238 0002127  91.4188 268.7186 13.15553009203362
ONEWEB-0213             
1 48790U 21045Z   25212.57517680 -.00000028  00000+0 -10725-3 0  9990
2 48790  87.9081 323.1328 0002147  93.7280 266.4096 13.15547331202288
ONEWEB-0212             
1 48791U 21045AA  25212.62826823  .00000031  00000+0  47375-4 0  9993
2 48791  87.9078 323.1043 0001859  98.2490 261.8851 13.15549515202285
ONEWEB-0227             
1 48792U 21045AB  25212.55140530  .00000067  00000+0  14494-3 0  9994
2 48792  87.9080 323.1392 0001976  94.5934 265.5422 13.15548545202229
ONEWEB-0226             
1 48793U 21045AC  25212.54507070  .00000145  00000+0  35181-3 0  9993
2 48793  87.9085 323.1447 0002281  94.4717 265.6674 13.15550197202196
ONEWEB-0224             
1 48794U 21045AD  25212.58469563 -.00000102  00000+0 -30370-3 0  9992
2 48794  87.9084 323.1747 0001495  68.0444 292.0845 13.15547028202125
